     2              NAVIGATION DATA                         RINEX VERSION / TYPE
CCRINEXN V1.6.0 UX  CDDIS               19-JUL-24 23:31     PGM / RUN BY / DATE 
IGS BROADCAST EPHEMERIS FILE                                COMMENT             
    0.1956D-07  0.1490D-07 -0.1192D-06 -0.5960D-07          ION ALPHA           
    0.1331D+06  0.1638D+06 -0.1966D+06 -0.2621D+06          ION BETA            
    0.000000000000D+00-0.266453525910D-14   503808     2323 DELTA-UTC: A0,A1,T,W
    18                                                      LEAP SECONDS        
                                                            END OF HEADER       
24 24  7 18  6  0  0.0-0.483568292111D-03-0.147792889038D-11 0.000000000000D+00
    0.550000000000D+02 0.387500000000D+01 0.554737392753D-08-0.173869757646D+01
    0.227242708206D-06 0.155158188427D-01 0.500120222569D-05 0.515369551277D+04
    0.367200000000D+06 0.273808836937D-06-0.209590755585D+01-0.316649675369D-07
    0.933754732438D+00 0.262531250000D+03 0.989320466037D+00-0.821284209784D-08
    0.279654505875D-09 0.100000000000D+01 0.232300000000D+04 0.000000000000D+00
    0.200000000000D+01 0.000000000000D+00 0.232830643654D-08 0.550000000000D+02
    0.360018000000D+06 0.400000000000D+01 0.000000000000D+00 0.000000000000D+00
25 24  7 18  6  0  0.0 0.498616136611D-03 0.341060513165D-12 0.000000000000D+00
    0.180000000000D+02 0.255625000000D+02 0.472019661513D-08 0.275316664296D+01
    0.119954347610D-05 0.116167508531D-01 0.935047864914D-05 0.515376206589D+04
    0.367200000000D+06 0.204890966415D-07-0.968943048550D+00-0.149011611938D-06
    0.949839430408D+00 0.188937500000D+03 0.108945835695D+01-0.773210778761D-08
   -0.525379027002D-09 0.100000000000D+01 0.232300000000D+04 0.000000000000D+00
    0.200000000000D+01 0.000000000000D+00 0.512227416039D-08 0.180000000000D+02
    0.360018000000D+06 0.400000000000D+01 0.000000000000D+00 0.000000000000D+00
26 24  7 18  6  0  0.0 0.117874238640D-03-0.693489710102D-11 0.000000000000D+00
    0.106000000000D+03 0.224375000000D+02 0.531843581991D-08 0.198794950615D+01
    0.121630728245D-05 0.896267418284D-02 0.896863639355D-05 0.515366945648D+04
    0.367200000000D+06-0.238418579102D-06-0.103239480883D+01 0.577419996262D-07
    0.930557421109D+00 0.193625000000D+03 0.541350055689D+00-0.819712715753D-08
   -0.484305887570D-09 0.100000000000D+01 0.232300000000D+04 0.000000000000D+00
    0.200000000000D+01 0.000000000000D+00 0.651925802231D-08 0.106000000000D+03
    0.365496000000D+06 0.400000000000D+01 0.000000000000D+00 0.000000000000D+00
27 24  7 18  6  0  0.0-0.313748605549D-04-0.909494701773D-12 0.000000000000D+00
    0.610000000000D+02 0.111312500000D+03 0.449197282298D-08 0.175114294533D+00
    0.602193176746D-05 0.125288118143D-01 0.610202550888D-05 0.515368626404D+04
    0.367200000000D+06 0.111758708954D-07 0.880701860539D-01 0.204890966415D-06
    0.961772704802D+00 0.259875000000D+03 0.797295198385D+00-0.823141430002D-08
   -0.116790579082D-09 0.100000000000D+01 0.232300000000D+04 0.000000000000D+00
    0.200000000000D+01 0.000000000000D+00 0.186264514923D-08 0.610000000000D+02
    0.360276000000D+06 0.400000000000D+01 0.000000000000D+00 0.000000000000D+00
28 24  7 18  6  0  0.0-0.335930846632D-03-0.158024704433D-10 0.000000000000D+00
    0.178000000000D+03 0.165625000000D+01 0.497056418681D-08 0.234230929102D+01
    0.484287738800D-07 0.309909577481D-03 0.617653131485D-05 0.515367355919D+04
    0.367200000000D+06-0.428408384323D-07-0.203043361854D+01-0.428408384323D-07
    0.961087481288D+00 0.263968750000D+03 0.151156203060D+01-0.803140596887D-08
    0.500020827874D-10 0.100000000000D+01 0.232300000000D+04 0.000000000000D+00
    0.200000000000D+01 0.000000000000D+00-0.931322574616D-08 0.434000000000D+03
    0.360018000000D+06 0.400000000000D+01 0.000000000000D+00 0.000000000000D+00
29 24  7 18  6  0  0.0-0.588962342590D-03 0.193267624127D-11 0.000000000000D+00
    0.146000000000D+03 0.114218750000D+03 0.411731435981D-08 0.960064785981D-01
    0.577047467232D-05 0.300613942090D-02 0.615045428276D-05 0.515356958198D+04
    0.367200000000D+06 0.000000000000D+00 0.171773981499D+00-0.279396772385D-07
    0.970971694606D+00 0.266437500000D+03 0.261647947592D+01-0.792318717541D-08
   -0.560737642688D-10 0.100000000000D+01 0.232300000000D+04 0.000000000000D+00
    0.280000000000D+01 0.000000000000D+00-0.977888703346D-08 0.146000000000D+03
    0.360906000000D+06 0.400000000000D+01 0.000000000000D+00 0.000000000000D+00
30 24  7 18  6  0  0.0-0.355865806341D-03 0.659383658785D-11 0.000000000000D+00
    0.340000000000D+02 0.315625000000D+01 0.554844540074D-08-0.288257194799D+01
    0.130385160446D-07 0.718113593757D-02 0.581890344620D-05 0.515360120583D+04
    0.367200000000D+06 0.111758708954D-07-0.199810941076D+01-0.154599547386D-06
    0.935127324104D+00 0.257531250000D+03-0.244836137791D+01-0.823534303509D-08
    0.603596570791D-10 0.100000000000D+01 0.232300000000D+04 0.000000000000D+00
    0.200000000000D+01 0.000000000000D+00 0.419095158577D-08 0.340000000000D+02
    0.360282000000D+06 0.400000000000D+01 0.000000000000D+00 0.000000000000D+00
31 24  7 18  6  0  0.0-0.226673670113D-03 0.341060513165D-12 0.000000000000D+00
    0.160000000000D+02-0.196875000000D+01 0.505985362036D-08 0.262563953748D+01
   -0.169500708580D-06 0.105085313553D-01 0.608898699284D-05 0.515374663162D+04
    0.367200000000D+06-0.100582838059D-06-0.197620326583D+01-0.147148966789D-06
    0.953928283513D+00 0.260000000000D+03 0.695201292370D+00-0.792032991353D-08
    0.139291516337D-10 0.100000000000D+01 0.232300000000D+04 0.000000000000D+00
    0.200000000000D+01 0.000000000000D+00-0.135041773319D-07 0.160000000000D+02
    0.367098000000D+06 0.400000000000D+01 0.000000000000D+00 0.000000000000D+00
32 24  7 18  6  0  0.0-0.611559022218D-03 0.204636307899D-11 0.000000000000D+00
    0.120000000000D+02-0.252500000000D+02 0.441054085959D-08 0.833562918361D+00
   -0.148639082909D-05 0.779486005195D-02 0.928714871407D-05 0.515370027924D+04
    0.367200000000D+06-0.130385160446D-06-0.305534300618D+01 0.279396772385D-07
    0.962707262222D+00 0.199875000000D+03-0.213136505621D+01-0.790675791963D-08
    0.521093134192D-09 0.100000000000D+01 0.232300000000D+04 0.000000000000D+00
    0.200000000000D+01 0.000000000000D+00 0.931322574616D-09 0.120000000000D+02
    0.361008000000D+06 0.400000000000D+01 0.000000000000D+00 0.000000000000D+00
22 24  7 18  7 59 28.0-0.409455969930D-04-0.454747350886D-11 0.000000000000D+00
    0.124000000000D+03 0.484687500000D+02 0.444447084434D-08 0.166997511253D+01
    0.241398811340D-05 0.142317919526D-01 0.954978168011D-05 0.515369964027D+04
    0.374368000000D+06 0.290572643280D-06-0.860745650814D+00-0.117346644402D-06
    0.960724698086D+00 0.193000000000D+03-0.113009278353D+01-0.761710299720D-08
   -0.541093967307D-09 0.100000000000D+01 0.232300000000D+04 0.000000000000D+00
    0.200000000000D+01 0.000000000000D+00-0.111758708954D-07 0.124000000000D+03
    0.368736000000D+06 0.400000000000D+01 0.000000000000D+00 0.000000000000D+00
 1 24  7 18  7 59 44.0 0.240247230977D-03-0.727595761418D-11 0.000000000000D+00
    0.310000000000D+02 0.276562500000D+02 0.591096050094D-08 0.258422731832D+01
    0.135228037834D-05 0.133787530940D-01 0.962056219578D-05 0.515378031921D+04
    0.374384000000D+06 0.372529029846D-07-0.934787119579D+00-0.184401869774D-06
    0.953928178183D+00 0.189562500000D+03 0.103019316978D+01-0.765067582421D-08
   -0.451090218290D-09 0.100000000000D+01 0.232300000000D+04 0.000000000000D+00
    0.200000000000D+01 0.630000000000D+02-0.195577740669D-07 0.310000000000D+02
    0.372816000000D+06 0.400000000000D+01 0.000000000000D+00 0.000000000000D+00
 9 24  7 18  7 59 44.0 0.277784653008D-03 0.151203494170D-10 0.000000000000D+00
    0.100000000000D+01-0.328437500000D+02 0.430125059292D-08 0.164958790080D+01
   -0.167451798916D-05 0.287518568803D-02 0.958517193794D-05 0.515362984276D+04
    0.374384000000D+06 0.726431608200D-07-0.307021479584D+01 0.447034835815D-07
    0.959327305570D+00 0.194250000000D+03 0.197313024987D+01-0.772496463293D-08
    0.634312135932D-09 0.100000000000D+01 0.232300000000D+04 0.000000000000D+00
    0.200000000000D+01 0.000000000000D+00 0.931322574616D-09 0.100000000000D+01
    0.367218000000D+06 0.400000000000D+01 0.000000000000D+00 0.000000000000D+00
15 24  7 18  7 59 44.0 0.182394403964D-03 0.432009983342D-11 0.000000000000D+00
    0.400000000000D+01-0.433125000000D+02 0.489556106263D-08 0.201732660987D+00
   -0.218674540520D-05 0.158504319843D-01 0.958889722824D-05 0.515368014717D+04
    0.374384000000D+06-0.255182385445D-06 0.308380367804D+01 0.670552253723D-07
    0.936285844041D+00 0.186031250000D+03 0.132852222084D+01-0.826355849609D-08
    0.477162732886D-09 0.100000000000D+01 0.232300000000D+04 0.000000000000D+00
    0.200000000000D+01 0.000000000000D+00-0.102445483208D-07 0.400000000000D+01
    0.373686000000D+06 0.400000000000D+01 0.000000000000D+00 0.000000000000D+00
21 24  7 18  7 59 44.0 0.108189415187D-03-0.238742359215D-11 0.000000000000D+00
    0.100000000000D+02 0.896875000000D+01 0.466662295501D-08 0.996095261606D+00
    0.108033418655D-06 0.252240871778D-01 0.260770320892D-07 0.515367175293D+04
    0.374384000000D+06 0.603497028351D-06 0.105142220601D+01 0.372529029846D-08
    0.961392451432D+00 0.368250000000D+03-0.546495416528D+00-0.842285084555D-08
   -0.210723063176D-09 0.100000000000D+01 0.232300000000D+04 0.000000000000D+00
    0.200000000000D+01 0.000000000000D+00-0.102445483208D-07 0.100000000000D+02
    0.372168000000D+06 0.400000000000D+01 0.000000000000D+00 0.000000000000D+00
